{
    "CCSDS_OMM_VERS": "3.0",
    "COMMENT": "GENERATED VIA SPACE-TRACK.ORG API",
    "CREATION_DATE": "2025-05-22T17:14:14",
    "ORIGINATOR": "18 SPCS",
    "OBJECT_NAME": "COSMOS 2544 (GLONASS)",
    "OBJECT_ID": "2019-088A",
    "CENTER_NAME": "EARTH",
    "REF_FRAME": "TEME",
    "TIME_SYSTEM": "UTC",
    "MEAN_ELEMENT_THEORY": "SGP4",
    "EPOCH": "2025-05-22T03:13:47.248032",
    "MEAN_MOTION": "2.13101903",
    "ECCENTRICITY": "0.00142120",
    "INCLINATION": "65.3513",
    "RA_OF_ASC_NODE": "86.8029",
    "ARG_OF_PERICENTER": "261.9465",
    "MEAN_ANOMALY": "97.8761",
    "EPHEMERIS_TYPE": "0",
    "CLASSIFICATION_TYPE": "U",
    "NORAD_CAT_ID": "44850",
    "ELEMENT_SET_NO": "999",
    "REV_AT_EPOCH": "4238",
    "BSTAR": "0.00000000000000",
    "MEAN_MOTION_DOT": "0.00000019",
    "MEAN_MOTION_DDOT": "0.0000000000000",
    "SEMIMAJOR_AXIS": "25508.032",
    "PERIOD": "675.733",
    "APOAPSIS": "19166.149",
    "PERIAPSIS": "19093.645",
    "OBJECT_TYPE": "PAYLOAD",
    "RCS_SIZE": "LARGE",
    "COUNTRY_CODE": "CIS",
    "LAUNCH_DATE": "2019-12-11",
    "SITE": "PKMTR",
    "DECAY_DATE": null,
    "FILE": "4736220",
    "GP_ID": "288145338",
    "TLE_LINE0": "0 COSMOS 2544 (GLONASS)",
    "TLE_LINE1": "1 44850U 19088A   25142.13457463  .00000019  00000-0  00000-0 0  9994",
    "TLE_LINE2": "2 44850  65.3513  86.8029 0014212 261.9465  97.8761  2.13101903 42387"
}